0 COSMOS 83
1 01573U 65070D   13282.47322819 -.00000107  00000-0 -10272-3 0   756
2 01573 056.0563 041.2194 0071434 047.3760 025.8538 12.40995251180569
0 COSMOS 83
1 01573U 65070D   13284.48655635 -.00000107  00000-0 -99085-4 0   765
2 01573 056.0566 035.8764 0071439 050.0829 020.5245 12.40995443180814
0 COSMOS 83
1 01573U 65070D   13286.50590874 -.00000095  00000-0 -95916-5 0   770
2 01573 056.0568 030.5178 0071460 052.6825 042.2249 12.40995211181061
0 COSMOS 83
1 01573U 65070D   13288.52126980 -.00000078  00000-0  11422-3 0   786
2 01573 056.0567 025.1697 0071533 055.2924 046.0769 12.40995037181319
0 COSMOS 83
1 01573U 65070D   13290.53227323 -.00000077  00000-0  11914-3 0   799
2 01573 056.0567 019.8335 0071556 057.8797 030.4763 12.40995014181562
0 COSMOS 83
1 01573U 65070D   13292.72576681 -.00000085  00000-0  60887-4 0   801
2 01573 056.0565 014.0126 0071602 060.7136 110.1600 12.40995223181835
0 COSMOS 83
1 01573U 65070D   13295.18879102 -.00000096  00000-0 -19542-4 0   814
2 01573 056.0563 007.4764 0071619 063.8614 314.0386 12.40995425182145
